{
  "type": "FeatureCollection",
  "features": [
    {
      "type": "Feature",
      "properties": {
        "norad_id": 66947,
        "name": "STARLINK-36089",
        "group": "last-30-days",
        "lat": -42.56962607450614,
        "lon": -51.04770536881658,
        "alt_km": 378.56020995974905,
        "timestamp": "2025-12-24T07:45:04.934221+00:00",
        "meta_object_name": "STARLINK-36089",
        "meta_object_id": "2025-286Y",
        "meta_epoch": "2025-12-23T22:00:01.999584",
        "meta_mean_motion": 15.66742466,
        "meta_eccentricity": 0.00015233,
        "meta_inclination": 53.1592,
        "meta_ra_of_asc_node": 354.4713,
        "meta_arg_of_pericenter": 92.4105,
        "meta_mean_anomaly": 78.3377,
        "meta_ephemeris_type": 0,
        "meta_classification_type": "U",
        "meta_norad_cat_id": 66947,
        "meta_element_set_no": 999,
        "meta_rev_at_epoch": 378,
        "meta_bstar": -0.020609057,
        "meta_mean_motion_dot": -0.01953753,
        "meta_mean_motion_ddot": 0,
        "tle_line1": "1 66947U 25286Y   25357.91668981 -.01953753  00000+0 -20609-1 0  9997",
        "tle_line2": "2 66947  53.1592 354.4713 0001523  92.4105  78.3377 15.66742466  3788"
      },
      "geometry": {
        "type": "Point",
        "coordinates": [
          -51.04770536881658,
          -42.56962607450614
        ]
      }
    },
    {
      "type": "Feature",
      "properties": {
        "norad_id": 66948,
        "name": "STARLINK-36116",
        "group": "last-30-days",
        "lat": -43.65829912779517,
        "lon": -53.19505370714265,
        "alt_km": 378.5255030652306,
        "timestamp": "2025-12-24T07:45:04.934231+00:00",
        "meta_object_name": "STARLINK-36116",
        "meta_object_id": "2025-286Z",
        "meta_epoch": "2025-12-23T22:00:01.999584",
        "meta_mean_motion": 15.66742937,
        "meta_eccentricity": 0.00013681,
        "meta_inclination": 53.1592,
        "meta_ra_of_asc_node": 354.4756,
        "meta_arg_of_pericenter": 91.8889,
        "meta_mean_anomaly": 76.9452,
        "meta_ephemeris_type": 0,
        "meta_classification_type": "U",
        "meta_norad_cat_id": 66948,
        "meta_element_set_no": 999,
        "meta_rev_at_epoch": 378,
        "meta_bstar": -0.020639404,
        "meta_mean_motion_dot": -0.01956207,
        "meta_mean_motion_ddot": 0,
        "tle_line1": "1 66948U 25286Z   25357.91668981 -.01956207  00000+0 -20639-1 0  9998",
        "tle_line2": "2 66948  53.1592 354.4756 0001368  91.8889  76.9452 15.66742937  3786"
      },
      "geometry": {
        "type": "Point",
        "coordinates": [
          -53.19505370714265,
          -43.65829912779517
        ]
      }
    },
    {
      "type": "Feature",
      "properties": {
        "norad_id": 66949,
        "name": "STARLINK-36096",
        "group": "last-30-days",
        "lat": -41.43910826847593,
        "lon": -48.969340043607716,
        "alt_km": 378.3400885809215,
        "timestamp": "2025-12-24T07:45:04.934241+00:00",
        "meta_object_name": "STARLINK-36096",
        "meta_object_id": "2025-286AA",
        "meta_epoch": "2025-12-23T22:00:01.999584",
        "meta_mean_motion": 15.66743697,
        "meta_eccentricity": 0.00012527,
        "meta_inclination": 53.1592,
        "meta_ra_of_asc_node": 354.4678,
        "meta_arg_of_pericenter": 91.8449,
        "meta_mean_anomaly": 80.8236,
        "meta_ephemeris_type": 0,
        "meta_classification_type": "U",
        "meta_norad_cat_id": 66949,
        "meta_element_set_no": 999,
        "meta_rev_at_epoch": 378,
        "meta_bstar": -0.020676134,
        "meta_mean_motion_dot": -0.01959245,
        "meta_mean_motion_ddot": 0,
        "tle_line1": "1 66949U 25286AA  25357.91668981 -.01959245  00000+0 -20676-1 0  9995",
        "tle_line2": "2 66949  53.1592 354.4678 0001252  91.8449  80.8236 15.66743697  3782"
      },
      "geometry": {
        "type": "Point",
        "coordinates": [
          -48.969340043607716,
          -41.43910826847593
        ]
      }
    },
    {
      "type": "Feature",
      "properties": {
        "norad_id": 66950,
        "name": "STARLINK-36111",
        "group": "last-30-days",
        "lat": -39.074467316649816,
        "lon": -45.031401682647704,
        "alt_km": 378.2844958186206,
        "timestamp": "2025-12-24T07:45:04.934253+00:00",
        "meta_object_name": "STARLINK-36111",
        "meta_object_id": "2025-286AB",
        "meta_epoch": "2025-12-23T22:00:01.999584",
        "meta_mean_motion": 15.66747633,
        "meta_eccentricity": 0.00013287,
        "meta_inclination": 53.1593,
        "meta_ra_of_asc_node": 354.4596,
        "meta_arg_of_pericenter": 98.3235,
        "meta_mean_anomaly": 78.1732,
        "meta_ephemeris_type": 0,
        "meta_classification_type": "U",
        "meta_norad_cat_id": 66950,
        "meta_element_set_no": 999,
        "meta_rev_at_epoch": 378,
        "meta_bstar": -0.020672081,
        "meta_mean_motion_dot": -0.0195924,
        "meta_mean_motion_ddot": 0,
        "tle_line1": "1 66950U 25286AB  25357.91668981 -.01959240  00000+0 -20672-1 0  9998",
        "tle_line2": "2 66950  53.1593 354.4596 0001328  98.3235  78.1732 15.66747633  3788"
      },
      "geometry": {
        "type": "Point",
        "coordinates": [
          -45.031401682647704,
          -39.074467316649816
        ]
      }
    },
    {
      "type": "Feature",
      "properties": {
        "norad_id": 66951,
        "name": "STARLINK-35999",
        "group": "last-30-days",
        "lat": -37.846396030548554,
        "lon": -43.16589309916631,
        "alt_km": 378.2253741640243,
        "timestamp": "2025-12-24T07:45:04.934265+00:00",
        "meta_object_name": "STARLINK-35999",
        "meta_object_id": "2025-286AC",
        "meta_epoch": "2025-12-23T22:00:01.999584",
        "meta_mean_motion": 15.66743285,
        "meta_eccentricity": 0.00014435,
        "meta_inclination": 53.1591,
        "meta_ra_of_asc_node": 354.4555,
        "meta_arg_of_pericenter": 92.6199,
        "meta_mean_anomaly": 85.7946,
        "meta_ephemeris_type": 0,
        "meta_classification_type": "U",
        "meta_norad_cat_id": 66951,
        "meta_element_set_no": 999,
        "meta_rev_at_epoch": 378,
        "meta_bstar": -0.020605268,
        "meta_mean_motion_dot": -0.01953433,
        "meta_mean_motion_ddot": 0,
        "tle_line1": "1 66951U 25286AC  25357.91668981 -.01953433  00000+0 -20605-1 0  9993",
        "tle_line2": "2 66951  53.1591 354.4555 0001443  92.6199  85.7946 15.66743285  3786"
      },
      "geometry": {
        "type": "Point",
        "coordinates": [
          -43.16589309916631,
          -37.846396030548554
        ]
      }
    },
    {
      "type": "Feature",
      "properties": {
        "norad_id": 66952,
        "name": "STARLINK-36122",
        "group": "last-30-days",
        "lat": -40.27322405148529,
        "lon": -46.965784175567656,
        "alt_km": 378.3599516445547,
        "timestamp": "2025-12-24T07:45:04.934276+00:00",
        "meta_object_name": "STARLINK-36122",
        "meta_object_id": "2025-286AD",
        "meta_epoch": "2025-12-23T22:00:01.999584",
        "meta_mean_motion": 15.66744462,
        "meta_eccentricity": 0.00013578,
        "meta_inclination": 53.159,
        "meta_ra_of_asc_node": 354.4637,
        "meta_arg_of_pericenter": 95.8179,
        "meta_mean_anomaly": 78.766,
        "meta_ephemeris_type": 0,
        "meta_classification_type": "U",
        "meta_norad_cat_id": 66952,
        "meta_element_set_no": 999,
        "meta_rev_at_epoch": 378,
        "meta_bstar": -0.02065926,
        "meta_mean_motion_dot": -0.01957967,
        "meta_mean_motion_ddot": 0,
        "tle_line1": "1 66952U 25286AD  25357.91668981 -.01957967  00000+0 -20659-1 0  9999",
        "tle_line2": "2 66952  53.1590 354.4637 0001357  95.8179  78.7660 15.66744462  3787"
      },
      "geometry": {
        "type": "Point",
        "coordinates": [
          -46.965784175567656,
          -40.27322405148529
        ]
      }
    },
    {
      "type": "Feature",
      "properties": {
        "norad_id": 66953,
        "name": "HULIANWANG DIGUI-114",
        "group": "last-30-days",
        "lat": -65.82102974260407,
        "lon": -25.89909650957393,
        "alt_km": 1024.3082106456459,
        "timestamp": "2025-12-24T07:45:04.934285+00:00",
        "meta_object_name": "HULIANWANG DIGUI-114",
        "meta_object_id": "2025-287A",
        "meta_epoch": "2025-12-20T09:09:14.655168",
        "meta_mean_motion": 13.66161866,
        "meta_eccentricity": 0.00096738,
        "meta_inclination": 86.496,
        "meta_ra_of_asc_node": 343.3747,
        "meta_arg_of_pericenter": 185.0352,
        "meta_mean_anomaly": 175.071,
        "meta_ephemeris_type": 0,
        "meta_classification_type": "U",
        "meta_norad_cat_id": 66953,
        "meta_element_set_no": 999,
        "meta_rev_at_epoch": 157,
        "meta_bstar": 3.033618e-06,
        "meta_mean_motion_dot": 1.9e-07,
        "meta_mean_motion_ddot": 0,
        "tle_line1": "1 66953U 25287A   25354.38141962  .00000019  00000+0  30336-5 0  9995",
        "tle_line2": "2 66953  86.4960 343.3747 0009673 185.0352 175.0710 13.66161866  1572"
      },
      "geometry": {
        "type": "Point",
        "coordinates": [
          -25.89909650957393,
          -65.82102974260407
        ]
      }
    }
  ]
}